{"type": "FeatureCollection", "features": [ {"type": "Feature", "properties": {"norad_id": 43262, "name": "GAOFEN-1 04", "group": "resource", "lat": 64.64076755983264, "lon": 17.588062069990944, "alt_km": 633.3930920083276, "timestamp": "2025-12-03T04:52:29.299055+00:00", "meta": {"OBJECT_NAME": "GAOFEN-1 04", "OBJECT_ID": "2018-031D", "EPOCH": "2025-12-02T20:26:41.430624", "MEAN_MOTION": 14.76415623, "ECCENTRICITY": 0.0001368, "INCLINATION": 98.0822, "RA_OF_ASC_NODE": 34.6829, "ARG_OF_PERICENTER": 62.7477, "MEAN_ANOMALY": 297.3872, "EPHEMERIS_TYPE": 0, "CLASSIFICATION_TYPE": "U", "NORAD_CAT_ID": 43262, "ELEMENT_SET_NO": 999, "REV_AT_EPOCH": 41371, "BSTAR": 0.00020101, "MEAN_MOTION_DOT": 1.345e-05, "MEAN_MOTION_DDOT": 0}, "tle": {"line1": "1 43262U 18031D   25336.85186841  .00001345  00000+0  20101-3 0  9999", "line2": "2 43262  98.0822  34.6829 0001368  62.7477 297.3872 14.76415623413714"}}, "geometry": {"type": "Point", "coordinates": [17.588062069990944, 64.64076755983264]}}, {"type": "Feature", "properties": {"norad_id": 43437, "name": "SENTINEL-3B", "group": "resource", "lat": 43.37098334230858, "lon": -129.22876343826144, "alt_km": 798.0490954458755, "timestamp": "2025-12-03T04:52:29.299065+00:00", "meta": {"OBJECT_NAME": "SENTINEL-3B", "OBJECT_ID": "2018-039A", "EPOCH": "2025-12-02T18:08:28.531392", "MEAN_MOTION": 14.26736446, "ECCENTRICITY": 0.0001467, "INCLINATION": 98.6281, "RA_OF_ASC_NODE": 42.0836, "ARG_OF_PERICENTER": 112.3309, "MEAN_ANOMALY": 247.8027, "EPHEMERIS_TYPE": 0, "CLASSIFICATION_TYPE": "U", "NORAD_CAT_ID": 43437, "ELEMENT_SET_NO": 999, "REV_AT_EPOCH": 39611, "BSTAR": 0.00010314, "MEAN_MOTION_DOT": 2.06e-06, "MEAN_MOTION_DDOT": 0}, "tle": {"line1": "1 43437U 18039A   25336.75588578  .00000206  00000+0  10314-3 0  9993", "line2": "2 43437  98.6281  42.0836 0001467 112.3309 247.8027 14.26736446396110"}}, "geometry": {"type": "Point", "coordinates": [-129.22876343826144, 43.37098334230858]}}, {"type": "Feature", "properties": {"norad_id": 43461, "name": "GAOFEN-5 01", "group": "resource", "lat": 50.21137824840678, "lon": -70.25397078957144, "alt_km": 686.440509021124, "timestamp": "2025-12-03T04:52:29.299076+00:00", "meta": {"OBJECT_NAME": "GAOFEN-5 01", "OBJECT_ID": "2018-043A", "EPOCH": "2025-12-02T20:25:13.689696", "MEAN_MOTION": 14.60391187, "ECCENTRICITY": 0.0001605, "INCLINATION": 98.4311, "RA_OF_ASC_NODE": 299.6463, "ARG_OF_PERICENTER": 11.609, "MEAN_ANOMALY": 348.5146, "EPHEMERIS_TYPE": 0, "CLASSIFICATION_TYPE": "U", "NORAD_CAT_ID": 43461, "ELEMENT_SET_NO": 999, "REV_AT_EPOCH": 40303, "BSTAR": 0.00014932, "MEAN_MOTION_DOT": 6.74e-06, "MEAN_MOTION_DDOT": 0}, "tle": {"line1": "1 43461U 18043A   25336.85085289  .00000674  00000+0  14932-3 0  9996", "line2": "2 43461  98.4311 299.6463 0001605  11.6090 348.5146 14.60391187403035"}}, "geometry": {"type": "Point", "coordinates": [-70.25397078957144, 50.21137824840678]}}, {"type": "Feature", "properties": {"norad_id": 43484, "name": "GAOFEN-6", "group": "resource", "lat": -33.16205353722126, "lon": -143.3519203755186, "alt_km": 651.3664321270235, "timestamp": "2025-12-03T04:52:29.299086+00:00", "meta": {"OBJECT_NAME": "GAOFEN-6", "OBJECT_ID": "2018-048A", "EPOCH": "2025-12-02T21:24:24.588000", "MEAN_MOTION": 14.76535446, "ECCENTRICITY": 0.0013323, "INCLINATION": 97.8045, "RA_OF_ASC_NODE": 41.4892, "ARG_OF_PERICENTER": 92.6791, "MEAN_ANOMALY": 267.5944, "EPHEMERIS_TYPE": 0, "CLASSIFICATION_TYPE": "U", "NORAD_CAT_ID": 43484, "ELEMENT_SET_NO": 999, "REV_AT_EPOCH": 40442, "BSTAR": 7.7292e-05, "MEAN_MOTION_DOT": 4.9e-06, "MEAN_MOTION_DDOT": 0}, "tle": {"line1": "1 43484U 18048A   25336.89195125  .00000490  00000+0  77292-4 0  9996", "line2": "2 43484  97.8045  41.4892 0013323  92.6791 267.5944 14.76535446404428"}}, "geometry": {"type": "Point", "coordinates": [-143.3519203755186, -33.16205353722126]}}, {"type": "Feature", "properties": {"norad_id": 43585, "name": "GAOFEN-11 01", "group": "resource", "lat": 55.52433594590895, "lon": 29.67373488424982, "alt_km": 413.36026580022553, "timestamp": "2025-12-03T04:52:29.299101+00:00", "meta": {"OBJECT_NAME": "GAOFEN-11 01", "OBJECT_ID": "2018-063A", "EPOCH": "2025-12-02T20:52:48.793152", "MEAN_MOTION": 15.48794024, "ECCENTRICITY": 0.0005021, "INCLINATION": 97.1583, "RA_OF_ASC_NODE": 39.8899, "ARG_OF_PERICENTER": 355.967, "MEAN_ANOMALY": 4.154, "EPHEMERIS_TYPE": 0, "CLASSIFICATION_TYPE": "U", "NORAD_CAT_ID": 43585, "ELEMENT_SET_NO": 999, "REV_AT_EPOCH": 40989, "BSTAR": 0.00033655, "MEAN_MOTION_DOT": 0.00018014, "MEAN_MOTION_DDOT": 0}, "tle": {"line1": "1 43585U 18063A   25336.87000918  .00018014  00000+0  33655-3 0  9993", "line2": "2 43585  97.1583  39.8899 0005021 355.9670   4.1540 15.48794024409897"}}, "geometry": {"type": "Point", "coordinates": [29.67373488424982, 55.52433594590895]}}, {"type": "Feature", "properties": {"norad_id": 43613, "name": "ICESAT-2", "group": "resource", "lat": 32.44764091801628, "lon": 59.43942542573496, "alt_km": 478.6015663856506, "timestamp": "2025-12-03T04:52:29.299112+00:00", "meta": {"OBJECT_NAME": "ICESAT-2", "OBJECT_ID": "2018-070A", "EPOCH": "2025-12-02T17:13:54.170112", "MEAN_MOTION": 15.28316823, "ECCENTRICITY": 6.66e-05, "INCLINATION": 92.0055, "RA_OF_ASC_NODE": 238.0319, "ARG_OF_PERICENTER": 151.2902, "MEAN_ANOMALY": 208.8384, "EPHEMERIS_TYPE": 0, "CLASSIFICATION_TYPE": "U", "NORAD_CAT_ID": 43613, "ELEMENT_SET_NO": 999, "REV_AT_EPOCH": 40245, "BSTAR": 0.00059854, "MEAN_MOTION_DOT": 0.00016514, "MEAN_MOTION_DDOT": 0}, "tle": {"line1": "1 43613U 18070A   25336.71798808  .00016514  00000+0  59854-3 0  9990", "line2": "2 43613  92.0055 238.0319 0000666 151.2902 208.8384 15.28316823402451"}}, "geometry": {"type": "Point", "coordinates": [59.43942542573496, 32.44764091801628]}}, {"type": "Feature", "properties": {"norad_id": 43719, "name": "HYSIS", "group": "resource", "lat": 2.4479920285298706, "lon": -139.42794901835964, "alt_km": 636.8643073610629, "timestamp": "2025-12-03T04:52:29.299122+00:00", "meta": {"OBJECT_NAME": "HYSIS", "OBJECT_ID": "2018-096A", "EPOCH": "2025-12-02T19:57:15.894144", "MEAN_MOTION": 14.78597379, "ECCENTRICITY": 0.0001693, "INCLINATION": 98.0111, "RA_OF_ASC_NODE": 39.8572, "ARG_OF_PERICENTER": 67.9481, "MEAN_ANOMALY": 292.191, "EPHEMERIS_TYPE": 0, "CLASSIFICATION_TYPE": "U", "NORAD_CAT_ID": 43719, "ELEMENT_SET_NO": 999, "REV_AT_EPOCH": 37840, "BSTAR": 2.3022e-05, "MEAN_MOTION_DOT": 1.16e-06, "MEAN_MOTION_DDOT": 0}, "tle": {"line1": "1 43719U 18096A   25336.83143396  .00000116  00000+0  23022-4 0  9994", "line2": "2 43719  98.0111  39.8572 0001693  67.9481 292.1910 14.78597379378400"}}, "geometry": {"type": "Point", "coordinates": [-139.42794901835964, 2.4479920285298706]}}, {"type": "Feature", "properties": {"norad_id": 43783, "name": "KAZSTSAT", "group": "resource", "lat": 63.26019926482557, "lon": -2.2664372766055902, "alt_km": 560.5690384841082, "timestamp": "2025-12-03T04:52:29.299133+00:00", "meta": {"OBJECT_NAME": "KAZSTSAT", "OBJECT_ID": "2018-099AB", "EPOCH": "2025-12-02T14:10:25.767264", "MEAN_MOTION": 14.99295651, "ECCENTRICITY": 0.00065816, "INCLINATION": 97.4552, "RA_OF_ASC_NODE": 12.212, "ARG_OF_PERICENTER": 7.2234, "MEAN_ANOMALY": 352.9084, "EPHEMERIS_TYPE": 0, "CLASSIFICATION_TYPE": "U", "NORAD_CAT_ID": 43783, "ELEMENT_SET_NO": 999, "REV_AT_EPOCH": 38184, "BSTAR": 0.0002208698, "MEAN_MOTION_DOT": 2.642e-05, "MEAN_MOTION_DDOT": 0}, "tle": {"line1": "1 43783U 18099AB  25336.59057601  .00002642  00000+0  22087-3 0  9999", "line2": "2 43783  97.4552  12.2120 0006581   7.2234 352.9084 14.99295651381841"}}, "geometry": {"type": "Point", "coordinates": [-2.2664372766055902, 63.26019926482557]}}, {"type": "Feature", "properties": {"norad_id": 43831, "name": "SAUDISAT 5A", "group": "resource", "lat": -61.585883063177285, "lon": 51.35853458838072, "alt_km": 504.4962717870503, "timestamp": "2025-12-03T04:52:29.299144+00:00", "meta": {"OBJECT_NAME": "SAUDISAT 5A", "OBJECT_ID": "2018-102A", "EPOCH": "2025-12-02T21:16:37.900128", "MEAN_MOTION": 15.25460709, "ECCENTRICITY": 0.0011775, "INCLINATION": 97.3375, "RA_OF_ASC_NODE": 37.269, "ARG_OF_PERICENTER": 106.4526, "MEAN_ANOMALY": 253.8008, "EPHEMERIS_TYPE": 0, "CLASSIFICATION_TYPE": "U", "NORAD_CAT_ID": 43831, "ELEMENT_SET_NO": 999, "REV_AT_EPOCH": 38572, "BSTAR": 0.00032859, "MEAN_MOTION_DOT": 8.26e-05, "MEAN_MOTION_DDOT": 0}, "tle": {"line1": "1 43831U 18102A   25336.88654977  .00008260  00000+0  32859-3 0  9999", "line2": "2 43831  97.3375  37.2690 0011775 106.4526 253.8008 15.25460709385727"}}, "geometry": {"type": "Point", "coordinates": [51.35853458838072, -61.585883063177285]}}, {"type": "Feature", "properties": {"norad_id": 43833, "name": "SAUDISAT 5B", "group": "resource", "lat": -22.348763165742515, "lon": 43.3416935761676, "alt_km": 499.31599905975145, "timestamp": "2025-12-03T04:52:29.299155+00:00", "meta": {"OBJECT_NAME": "SAUDISAT 5B", "OBJECT_ID": "2018-102C", "EPOCH": "2025-12-02T21:06:13.780224", "MEAN_MOTION": 15.25818746, "ECCENTRICITY": 0.0012439, "INCLINATION": 97.347, "RA_OF_ASC_NODE": 39.9828, "ARG_OF_PERICENTER": 109.0409, "MEAN_ANOMALY": 251.2178, "EPHEMERIS_TYPE": 0, "CLASSIFICATION_TYPE": "U", "NORAD_CAT_ID": 43833, "ELEMENT_SET_NO": 999, "REV_AT_EPOCH": 38583, "BSTAR": 0.00033116, "MEAN_MOTION_DOT": 8.417e-05, "MEAN_MOTION_DDOT": 0}, "tle": {"line1": "1 43833U 18102C   25336.87932616  .00008417  00000+0  33116-3 0  9990", "line2": "2 43833  97.3470  39.9828 0012439 109.0409 251.2178 15.25818746385834"}}, "geometry": {"type": "Point", "coordinates": [43.3416935761676, -22.348763165742515]}}]}